ID,Society name,Contact name,Contact email,Category,Society logo image,Intro video YouTube link,Teams call address,Society website address,Society Facebook page address,Society Instagram profile address,Society YouTube channel address,Additional society page address,Society email signup address
1,Oxford University Pole Sports,,,Dance & Theatre,img/logos/1.png,https://www.youtube.com/embed/kxqIFhfpQRM,https://teams.microsoft.com/l/meetup-join/19%3ameeting_YjBkZTdjYzctZTAzZi00YjliLWE5ZWMtZTQ4YTQ1ZDFkMGNj%40thread.v2/0?context=%7b%22Tid%22%3a%22cc95de1b-97f5-4f93-b4ba-fe68b852cf91%22%2c%22Oid%22%3a%22d6149776-2a79-400a-ba83-40cd88bec03c%22%7d,https://oupolesports.weebly.com/,https://www.facebook.com/oupolesports/,https://www.instagram.com/oupolesports/,https://www.youtube.com/channel/UCkUbMt3I2e8HxbJ9P8RuqwA,,https://docs.google.com/forms/d/e/1FAIpQLSdPAfSw_DGuERBDWqzr_-hmygMOhVndNAp15BGIrP6gs1wfrw/viewform
2,Love Oxford Students,,,Faith,img/logos/2.png,https://www.youtube.com/embed/5Khxp9WecLo,https://teams.microsoft.com/l/meetup-join/19%3ameeting_MDI1YWExOTctOTZkNi00ZDhmLWE0NDUtNGIzNGY0M2MwN2I0%40thread.v2/0?context=%7b%22Tid%22%3a%22cc95de1b-97f5-4f93-b4ba-fe68b852cf91%22%2c%22Oid%22%3a%226b758093-d58b-4720-98b4-978a1d054e39%22%7d,https://www.loveoxfordstudents.co.uk,,,,,
3,Oxford Vegan and Vegetarian Society (Vegsoc),,,Campaigning,img/logos/3.png,,https://teams.microsoft.com/l/meetup-join/19%3ameeting_YjdkZjYyMmEtNzMyNy00ODQzLWJiN2ItYzg5MmU3MWE3NGE5%40thread.v2/0?context=%7b%22Tid%22%3a%22cc95de1b-97f5-4f93-b4ba-fe68b852cf91%22%2c%22Oid%22%3a%2219a76a1d-f065-43eb-8bdf-7e331ecdf398%22%7d,https://vegsocoxford.wixsite.com/mysite-2,https://www.facebook.com/OxfordVegsoc/,https://www.instagram.com/oxvegsoc/,,,https://wixsite.us2.list-manage.com/subscribe?u=7a9f6e6aa4c0a0fc9a4f12910&id=b02c9c387c
4,The Oxford Gargoyles,,,Music,img/logos/4.png,https://www.youtube.com/embed/aLLaMLWdwGg,https://teams.microsoft.com/l/meetup-join/19%3ameeting_YTc2M2VkMjItNzdhMS00ZmY3LTk4NDUtN2Q3OGU0OTc3YTdj%40thread.v2/0?context=%7b%22Tid%22%3a%22cc95de1b-97f5-4f93-b4ba-fe68b852cf91%22%2c%22Oid%22%3a%22535af47b-3c82-43e9-ae2a-046bbd458b37%22%7d,https://www.theoxfordgargoyles.com/,https://www.facebook.com/theoxfordgargoyles,https://www.instagram.com/theoxfordgargoyles/,https://www.youtube.com/channel/UCtzGLpButRj-FpwSuXAjMwQ,,https://bit.ly/GargoylesAuditions
5,Oxford University Hip Hop Society,,,Music,img/logos/5.jpg,,https://teams.microsoft.com/l/meetup-join/19%3ameeting_OWIwOTYyMmItNDllZC00MmE1LWI1M2ItNWIwZGZhMzc4M2Jk%40thread.v2/0?context=%7b%22Tid%22%3a%22cc95de1b-97f5-4f93-b4ba-fe68b852cf91%22%2c%22Oid%22%3a%225fa11e49-71e0-4382-b9f9-bcc2bb60d1e6%22%7d,https://oxforduniversityhiphopsociety.wordpress.com/,https://www.facebook.com/oxforduniversityhiphopsociety,,,,https://facebook.us13.list-manage.com/subscribe?u=27d50cea9ebbd97467323a1cc&id=591398cd38
6,Sing Inside,,,Volunteering,img/logos/6.png,https://www.youtube.com/embed/BQbImrCusYM,https://teams.microsoft.com/l/meetup-join/19%3ameeting_YTMxZGRjZWMtYTIzMi00OWVkLThiMjYtMmM0Y2EyZWYyYWVj%40thread.v2/0?context=%7b%22Tid%22%3a%22cc95de1b-97f5-4f93-b4ba-fe68b852cf91%22%2c%22Oid%22%3a%22a4d625b1-0d46-46b5-ae1e-2d52c79f272f%22%7d,https://www.singinside.org/,https://www.facebook.com/singinsideupdates/,http://www.instagram.com/singinside,https://www.youtube.com/channel/UCAxMbTYOYetbsV1fNBGmMdw,,https://singinside.us19.list-manage.com/subscribe?u=4d2d24b5bab64e77e0658097f&id=7c7a287437
7,Oxford Universities Quidditch Club,,,Sport,img/logos/7.png,https://www.youtube.com/embed/MNOU7jXh9AA,https://teams.microsoft.com/l/meetup-join/19%3ameeting_MjA2ODYyNjUtN2NkMy00ZTVhLTljZGEtYWUwZWUxMGNhYjdj%40thread.v2/0?context=%7b%22Tid%22%3a%22cc95de1b-97f5-4f93-b4ba-fe68b852cf91%22%2c%22Oid%22%3a%224d572e5d-ad50-47ac-b736-5dd92ec49f6f%22%7d,ouqc.co.uk,https://www.facebook.com/OxUniQuidditch,https://www.instagram.com/oxuniquidditch/,https://www.youtube.com/user/OUQC/,https://twitter.com/OxUniQuidditch,
8,Oxford University Ceilidh Band,,,Music,img/logos/8.jpg,,https://teams.microsoft.com/l/meetup-join/19%3ameeting_YTQyZDlmYmMtYTlmYS00Y2IwLWJkNTYtODMzODk4N2QzMTMy%40thread.v2/0?context=%7b%22Tid%22%3a%22cc95de1b-97f5-4f93-b4ba-fe68b852cf91%22%2c%22Oid%22%3a%22e09c5d8f-e7ee-44c7-82ab-243ba2343b71%22%7d,http://ouceilidhband.org/,https://www.facebook.com/OUCeilidhBand,http://www.instagram.com/ouceilidhband,,https://docs.google.com/spreadsheets/d/1JA7S3Rqg9mbVK4w5DXi_83prbphNgVSY6Ub2DhZWD10/edit?usp=sharing,
9,Hertford College Music Society,,,Music,img/logos/9.png,https://www.youtube.com/embed/3nkYnS24rqY,https://teams.microsoft.com/l/meetup-join/19%3ameeting_OWQwZjY5ODAtNDRjMS00ZGQ3LTg4ZDktMGFjZjA4MWQ3NThl%40thread.v2/0?context=%7b%22Tid%22%3a%22cc95de1b-97f5-4f93-b4ba-fe68b852cf91%22%2c%22Oid%22%3a%22ea3dd268-7d67-4248-9c74-bbf6f0803d5b%22%7d,https://www.hertfordmusic.org/,https://www.facebook.com/HertfordMusic,https://www.instagram.com/hertfordmusic/?hl=en,https://www.youtube.com/user/HertfordMusicSociety,,https://docs.google.com/forms/d/e/1FAIpQLScnxusnn2O5wO6pQvcSLxNjHwa62yoFdpUZv1lZwxHYwlpecg/viewform?usp=sf_link 
10,The Arcadian Singers of Oxford,,,Music,img/logos/10.jpg,https://www.youtube.com/embed/LPS_P8Ug5es,https://teams.microsoft.com/l/meetup-join/19%3ameeting_ODRkYmZmOWUtZTI0OS00NDQyLWI5YjYtYjBmMTI3NzQzODNj%40thread.v2/0?context=%7b%22Tid%22%3a%22cc95de1b-97f5-4f93-b4ba-fe68b852cf91%22%2c%22Oid%22%3a%2265ac56c4-1473-4ecf-8d12-4d09dce826c9%22%7d,www.arcadiansingers.co.uk,https://www.facebook.com/arcadiansingers,https://www.instagram.com/arcadiansingersoxford/,,https://twitter.com/arcadiansingers,
11,Oxford University Student Chorus,,,Music,img/logos/11.png,https://www.youtube.com/embed/8k05xVIGO7c,https://teams.microsoft.com/l/meetup-join/19%3ameeting_YzNkNGIyNGQtN2ZjMi00ODEyLWI3YWEtNDNkOTUzOGEwYjA2%40thread.v2/0?context=%7b%22Tid%22%3a%22cc95de1b-97f5-4f93-b4ba-fe68b852cf91%22%2c%22Oid%22%3a%2212608866-9370-4002-a7a6-d67fa102e059%22%7d,http://ouc.oums.org/,https://www.facebook.com/groups/2202388443,,,https://www.facebook.com/OUChorus,https://st-annes.us8.list-manage.com/subscribe?u=2212960786545e7f730870b74&id=34d4053cfa
12,Oxford University Engineering Society,,,Academic,img/logos/12.png,https://www.youtube.com/embed/zrCUfGN_jBQ,https://teams.microsoft.com/l/meetup-join/19%3ameeting_NjZkZjc2ZmQtYWJjMS00N2U0LWIxMjgtNTcwZjU0YTZkNjIx%40thread.v2/0?context=%7b%22Tid%22%3a%22cc95de1b-97f5-4f93-b4ba-fe68b852cf91%22%2c%22Oid%22%3a%22841ce158-063b-491a-9c7d-e1773650ee66%22%7d,https://www.ouengsoc.org/,https://www.facebook.com/OUEngSoc,,https://www.youtube.com/channel/UCc3JBrmAxMeQvs5-hVWF04g,,
13,Oxford University Nature Conservation Society,,,Campaigning,img/logos/13.png,https://www.youtube.com/embed/KZJ8Ns0A5fM,https://teams.microsoft.com/l/meetup-join/19%3ameeting_Mjc3MjhkMTQtZjAwNC00YmM2LThmZjQtM2FkMDQ0Yzk4YmIy%40thread.v2/0?context=%7b%22Tid%22%3a%22cc95de1b-97f5-4f93-b4ba-fe68b852cf91%22%2c%22Oid%22%3a%22fcc30e4e-4aad-46de-8c5d-f2c59c829da3%22%7d,https://ouncs.org/,https://www.facebook.com/OUNCS/,,,,https://docs.google.com/forms/d/e/1FAIpQLSdszkaKJwDoTOKZrZsx8uXFuAaSpB9KEXKYlttu_ob0WDotuQ/viewform
14,Project Access International,,,Volunteering,img/logos/14.jpg,https://www.youtube.com/embed/Ze_kRRTqJz8,https://teams.microsoft.com/l/meetup-join/19%3ameeting_OWM4NDFmNjgtNGJkNi00MDRiLTlmZjktNmI5ZmM0NjMxY2Q1%40thread.v2/0?context=%7b%22Tid%22%3a%22b4f739b3-2472-4b9c-a496-8c24cd644e9c%22%2c%22Oid%22%3a%22b11de218-73a2-4ab1-a02c-5590d3c45ff5%22%7d,projectaccess.org,https://www.facebook.com/projectaccess.intl,https://www.instagram.com/projectaccess.intl/,https://www.youtube.com/channel/UCgyGgt6l17sLAvXTFoaQOdA,,http://projectaccess.org/become-a-mentor
15,The House of Improv,,,Dance & Theatre,img/logos/15.png,https://www.youtube.com/embed/l31bsWTN3TA&t=1s,https://teams.microsoft.com/l/meetup-join/19%3ameeting_MTczNjE2MzMtYjQ0Mi00ZTFiLWIwYTUtOGRkZmI4OTViOTQy%40thread.v2/0?context=%7b%22Tid%22%3a%22cc95de1b-97f5-4f93-b4ba-fe68b852cf91%22%2c%22Oid%22%3a%22ee0b541d-2753-4e25-8715-3c427f921d71%22%7d,,https://www.facebook.com/hofimprov,http://www.instagram.com/hofimprov,https://www.youtube.com/channel/UCUDSeomuXbKBRAwzOiQl7Ug,,
16,University of Oxford India Society,,,Cultural,img/logos/16.png,https://www.youtube.com/embed/CccsPXYmd5c,https://teams.microsoft.com/l/meetup-join/19%3ameeting_MDlhZDg1ZjEtNDUwMS00NTUyLWIwZDItYmM5ZDQwY2YwYzdi%40thread.v2/0?context=%7b%22Tid%22%3a%22cc95de1b-97f5-4f93-b4ba-fe68b852cf91%22%2c%22Oid%22%3a%22f013b68e-6590-4b39-9bb2-e237942d3960%22%7d,https://ois.org.uk/,https://www.facebook.com/oxfordindiasociety,http://www.instagram.com/oxfordindiasoc,,,
17,Jacari Oxford,,,Volunteering,img/logos/17.png,https://www.youtube.com/embed/JUB0L1SeoHo,https://teams.microsoft.com/l/meetup-join/19%3ameeting_ZGRiYWQzYzAtOWZkNy00MGIwLWEyNjEtZTFmOGI5MDcxNzNj%40thread.v2/0?context=%7b%22Tid%22%3a%22cc95de1b-97f5-4f93-b4ba-fe68b852cf91%22%2c%22Oid%22%3a%2260b860b9-4c64-409d-87ea-c6555e55e04f%22%7d,https://www.jacari.org/,https://www.facebook.com/JacariOxford/,https://www.instagram.com/jacarioxford/,,,
18,"Oxford Women in Engineering, Science, and Technology (OxWEST)",,,Careers,img/logos/18.png,,https://teams.microsoft.com/l/meetup-join/19%3ameeting_ZjI5OTAwMGQtMjY4OC00MmU3LTkzMmYtMDkwZTVmMGVkMWIw%40thread.v2/0?context=%7b%22Tid%22%3a%22cc95de1b-97f5-4f93-b4ba-fe68b852cf91%22%2c%22Oid%22%3a%2283b77a50-f77e-46f0-9938-b1e79d50f55b%22%7d,http://www.ox-west.org/,https://www.facebook.com/oxfordwomeninstem,http://www.instagram.com/ox.west,,http://linktr.ee/oxwest,https://mailchi.mp/2351440b9a26/oxfestsignup
19,Oxford University Aeronautical Society - AerOx,,,Academic,img/logos/19.png,https://www.youtube.com/embed/WG3ibvCwI-s,https://teams.microsoft.com/l/meetup-join/19%3ameeting_NmQ3YjE4MzItNzk0Ny00ZTJkLTg0ZGEtYTc4OTM2ZmM2MmJi%40thread.v2/0?context=%7b%22Tid%22%3a%22cc95de1b-97f5-4f93-b4ba-fe68b852cf91%22%2c%22Oid%22%3a%22929a70e1-349f-412c-9df3-d4a0472748ab%22%7d,www.aerox.space,https://www.facebook.com/OUAerOx/,,https://www.youtube.com/channel/UCLIUO-pvUMfMhLhmDe63jcw,,https://www.aerox.space/join-us
20,Oxford Tolkien Society (Taruithorn),,,Other,img/logos/20.jpg,https://www.youtube.com/embed/PAh2Su-5Jco,https://teams.microsoft.com/l/meetup-join/19%3ameeting_YzEzNmM2ZWQtZjY0NC00ZjhkLTljNWQtOTE5ZDkyN2Q0Zjg3%40thread.v2/0?context=%7b%22Tid%22%3a%22cc95de1b-97f5-4f93-b4ba-fe68b852cf91%22%2c%22Oid%22%3a%220ed93f70-0989-4ebb-9281-20f52175a92d%22%7d,http://users.ox.ac.uk/~tolksoc/,https://www.facebook.com/Taruithorn/,,,,https://docs.google.com/forms/d/e/1FAIpQLScC31gioOz6zAzeQTiDSjytywdxr3wj8P16WFyef_fvZgKybw/viewform?usp=sf_link
21,Turl Street Homeless Action,,,Volunteering,img/logos/21.jpg,https://www.youtube.com/embed/odipYV-wKRU,https://teams.microsoft.com/l/meetup-join/19%3ameeting_NWRjY2YwY2ItOWRkNC00ODExLTg1OWYtODM1MDE5NTdiMDE0%40thread.v2/0?context=%7b%22Tid%22%3a%22cc95de1b-97f5-4f93-b4ba-fe68b852cf91%22%2c%22Oid%22%3a%228cf22688-a82f-4643-9fed-dd55648720dd%22%7d,https://facebook.com/groups/turlstreethomelessaction,https://facebook.com/TSHAoxford/,@turlstreethomelessaction,,,
22,Oxford University Chess Society,,,Sport,img/logos/22.jpg,,https://teams.microsoft.com/l/meetup-join/19%3ameeting_YzIyMmUyNGMtNGI3Zi00OWRiLTkwM2ItZTYxNWEwNGYxZTcx%40thread.v2/0?context=%7b%22Tid%22%3a%22cc95de1b-97f5-4f93-b4ba-fe68b852cf91%22%2c%22Oid%22%3a%22a46dc4f5-428c-458e-8020-cb76f3306e61%22%7d,http://users.ox.ac.uk/~chess/,https://www.facebook.com/oxfordunichess/,,https://www.youtube.com/channel/UChsWocKKF1ahzf460dtvjyw/featured,,
23,Oxford Companions of the Order of Malta,,,Volunteering,img/logos/23.png,https://www.youtube.com/embed/GyU1rYTDy3I,https://teams.microsoft.com/l/meetup-join/19%3ameeting_YzNkYzYxOWYtMjJlYi00ZDg2LThlOTgtYzhmNjYzZjRiODlh%40thread.v2/0?context=%7b%22Tid%22%3a%22cc95de1b-97f5-4f93-b4ba-fe68b852cf91%22%2c%22Oid%22%3a%222cd6a9e6-25ec-4171-8380-cc82a7eb6373%22%7d,orderofmalta.org.uk/companions,facebook.com/COMOxford,,,https://forms.gle/v8E2dnRoDsR6Adm66,
24,The Oxford Commas,,,Music,img/logos/24.jpg,https://www.youtube.com/embed/-V6bun5F3T0,https://teams.microsoft.com/l/meetup-join/19%3ameeting_NzkwZTI5ZjctZWVmNC00MDQxLTkyOTAtNmUzMzBjYTFlNWJj%40thread.v2/0?context=%7b%22Tid%22%3a%22cc95de1b-97f5-4f93-b4ba-fe68b852cf91%22%2c%22Oid%22%3a%225b384ad4-fc2b-49c8-aa1f-488aed21bb99%22%7d,https://www.theoxcommas.co.uk/,https://www.facebook.com/theoxcommas,https://www.instagram.com/theoxcommas/,https://www.youtube.com/channel/UCslyQuRvu8dC6T5wBXp-nqA,,
25,The Oxford Imps,,,Dance & Theatre,img/logos/25.png,https://www.youtube.com/embed/Iu-SVtcnZmc&feature=youtu.be,https://teams.microsoft.com/l/meetup-join/19%3ameeting_YzZkNThkNjAtN2U2NS00ZGRhLTg3YmQtYzg3MjNiMDNkMjY1%40thread.v2/0?context=%7b%22Tid%22%3a%22cc95de1b-97f5-4f93-b4ba-fe68b852cf91%22%2c%22Oid%22%3a%222a23eed5-c7ab-4986-9835-5621b7c06ebb%22%7d,www.oxfordimps.com,@oxfordimps,http://www.instagram.com/oxfordimpstagram,https://www.youtube.com/user/OxfordImps,https://en.wikipedia.org/wiki/The_Oxford_Imps,https://forms.gle/EwQemRMjTTQaR8fJA
26,Oxford University Symphonic Band,,,Music,img/logos/26.png,https://www.youtube.com/embed/Sf-rD54yW6s,https://teams.microsoft.com/l/meetup-join/19%3ameeting_YjZlZDEwODQtYjQzYS00NGJkLWJiY2MtNzMwNDU3YzM1NmU3%40thread.v2/0?context=%7b%22Tid%22%3a%22cc95de1b-97f5-4f93-b4ba-fe68b852cf91%22%2c%22Oid%22%3a%22ae37660b-ae7e-4853-9168-b3c157945b7f%22%7d,,https://www.facebook.com/groups/51029783258,,,,
27,The Donut Kings (Big Band),,,Music,img/logos/27.png,https://www.youtube.com/embed/1q6ezdTBZ5Q,https://teams.microsoft.com/l/meetup-join/19%3ameeting_NTQ5ODJkYjQtMjBiNy00NWI0LWFlODctYTkyMTFjYWRlZmNh%40thread.v2/0?context=%7b%22Tid%22%3a%22cc95de1b-97f5-4f93-b4ba-fe68b852cf91%22%2c%22Oid%22%3a%223aac241e-6a34-4b96-b793-f9d6c2889365%22%7d,https://www.donutkingsoxford.co.uk/,https://www.facebook.com/donutkingsoxford,https://www.instagram.com/donutkingsoxford/,https://www.youtube.com/channel/UCCE3_4TV8EBQO-KWE545haA,,https://forms.gle/2rk1QUkfU7z54F6E8
28,Oxford Marrow,,,Volunteering,img/logos/28.jpg,https://www.youtube.com/embed/aeX6YRZ1mW8,https://teams.microsoft.com/l/meetup-join/19%3ameeting_MjUzYWU5ODMtYzU0NS00YzJiLWEyZjktMzAwM2FjMjMyZWY0%40thread.v2/0?context=%7b%22Tid%22%3a%22cc95de1b-97f5-4f93-b4ba-fe68b852cf91%22%2c%22Oid%22%3a%229d7c038e-9eae-4f8b-bd0c-ca514d2af3ea%22%7d,,Oxford Marrow,http://www.instagram.com/marrow_oxford,,,
29,OxWoCS (Oxford Women in Computer Science Society),,,Careers,img/logos/29.png,,https://teams.microsoft.com/l/meetup-join/19%3ameeting_MTAxOTM1NDMtNmFhMy00YjViLThmY2UtNTZjNjQ0N2RiYThk%40thread.v2/0?context=%7b%22Tid%22%3a%22cc95de1b-97f5-4f93-b4ba-fe68b852cf91%22%2c%22Oid%22%3a%22ae133db0-d09e-4a8e-b793-32e225817b1a%22%7d,https://www.cs.ox.ac.uk/societies/women/index.html,https://www.facebook.com/OxWoCS,,,https://twitter.com/OxWoCS,https://forms.office.com/Pages/ResponsePage.aspx?id=G96VzPWXk0-0uv5ouFLPkbA9E66e0I5Kt5My4iWBexpUQlpDNUY4SlA2V0Y5QlRPV0ExTEJEWkJDMC4u
30,Oxford South Asian Society (OxSAS),,,Cultural,img/logos/30.png,https://www.youtube.com/embed/9fSwwC2CRRU,https://teams.microsoft.com/l/meetup-join/19%3ameeting_YmJkYTQ4ZTktYjViNC00N2M0LWI5OWMtNTdiZjdmOTgzZjM1%40thread.v2/0?context=%7b%22Tid%22%3a%22cc95de1b-97f5-4f93-b4ba-fe68b852cf91%22%2c%22Oid%22%3a%223468bad8-41bc-43e1-b5a5-0619db46a280%22%7d,https://sites.google.com/view/oxford-south-asian-society,https://www.facebook.com/OxfordSAS/,https://www.instagram.com/oxfordsas/,https://www.youtube.com/channel/UCHXs9lPC9IqttPEb4pVE8yQ,https://twitter.com/oxfordsas,
31,Oxford Climate Society,,,Campaigning,img/logos/31.png,https://www.youtube.com/embed/SCFvfGPhTHs?start=77,https://teams.microsoft.com/l/meetup-join/19%3ameeting_OTgxZTVjNDQtMDUyYi00ODEyLTk0N2YtMDA2ZTY1NThiMjY1%40thread.v2/0?context=%7b%22Tid%22%3a%22cc95de1b-97f5-4f93-b4ba-fe68b852cf91%22%2c%22Oid%22%3a%22bb73e58b-e52c-4b70-bc39-0c71c44c2d74%22%7d,https://www.oxfordclimatesociety.com/,https://www.facebook.com/OxfordClimateSoc/,https://www.instagram.com/oxfordclimatesoc/,https://www.youtube.com/channel/UCOoksFYBCHqZWwVBU9qewZg/featured?view_as=subscriber,https://www.anthroposphere.co.uk/,https://cdn.forms-content.sg-form.com/1bb84515-e933-11e9-82f6-ba9137dae1fb
32,Oxford Longevity Society,,,Academic,img/logos/32.jpg,https://www.youtube.com/embed/4Rh3r5exyFg&feature=youtu.be,https://teams.microsoft.com/l/meetup-join/19%3ameeting_NDlmMWM2NzItZjkyMS00YWZmLWI5YzUtMDQxZTkyYzFhMjQ5%40thread.v2/0?context=%7b%22Tid%22%3a%22cc95de1b-97f5-4f93-b4ba-fe68b852cf91%22%2c%22Oid%22%3a%22541a8659-51c4-402d-aefb-ba8294d7e2ba%22%7d,,https://www.facebook.com/oxfordlongevity,,,https://www.facebook.com/groups/oxfordlongevity,https://docs.google.com/forms/d/1j4xMl-PKTbfiwHOwxuk-shqXzfRlvfMnAVZBYDnOgzg/edit
33,Oxford University Bioengineering Society,,,Academic,img/logos/33.png,,https://teams.microsoft.com/l/meetup-join/19%3ameeting_M2IxNzQ3YzctZDMwNS00MDczLTg2ZTgtOGY2ODM2OWM5NWJj%40thread.v2/0?context=%7b%22Tid%22%3a%22cc95de1b-97f5-4f93-b4ba-fe68b852cf91%22%2c%22Oid%22%3a%22efe49ce9-7e66-42f7-8a2b-fd0515d27398%22%7d,,https://www.facebook.com/oubesoxford,https://www.instagram.com/oubes_oxford/?hl=en,,https://www.linkedin.com/company/oxford-university-bioengineering-society/,
34,Exeter College Chapel Choir,,,Music,img/logos/34.png,https://www.youtube.com/embed/YYrT0ryOqjs,,https://www.exetercollegechoir.co.uk/,https://www.facebook.com/ExeterChoirOxford/,https://www.instagram.com/exeterchoiroxford/,,https://open.spotify.com/artist/6EXJvn4NteS7TNwW3ycfFA?si=jRzqafgUS1yfBpmASpJsKA,https://docs.google.com/forms/d/e/1FAIpQLSdbZaxCDdUe2xrNTVxRersz8wSM88AQINZ9mOFMNThzJ6Gmng/viewform
35,Oxford International Society,,,Cultural,img/logos/35.png,https://www.youtube.com/embed/td83GTjOdu4,https://teams.microsoft.com/l/meetup-join/19%3ameeting_YjU1OTNjNDItMTM5ZC00Yjg3LThkODktMzdmZWVjYzczNDBk%40thread.v2/0?context=%7b%22Tid%22%3a%22cc95de1b-97f5-4f93-b4ba-fe68b852cf91%22%2c%22Oid%22%3a%22b1e00d30-0198-4bbe-beaf-16d848055617%22%7d,,https://www.facebook.com/oxfordinternationalsociety/,,,,
36,Sisters of Funk,,,Music,img/logos/36.jpg,https://www.youtube.com/embed/XqIWn-bo5YU,https://teams.microsoft.com/l/meetup-join/19%3ameeting_NTYzY2VjMjYtOTFiMi00M2I4LTliNzItOGYzM2ExNDUzMjM0%40thread.v2/0?context=%7b%22Tid%22%3a%22cc95de1b-97f5-4f93-b4ba-fe68b852cf91%22%2c%22Oid%22%3a%22ff82b86a-1c7f-4ce4-88b6-460ca0cd9df8%22%7d,,https://www.facebook.com/sistersoffunkoxford,https://www.instagram.com/sistersoffunk/?hl=en,,,
37,TEDxOxford,,,Other,img/logos/37.png,https://www.youtube.com/embed/QbIwq7rbG1U,https://teams.microsoft.com/l/meetup-join/19%3ameeting_NjRmMTMwNmMtZWExNy00YjY0LWFmYTctMTJlNTYyMmMxMjhm%40thread.v2/0?context=%7b%22Tid%22%3a%22cc95de1b-97f5-4f93-b4ba-fe68b852cf91%22%2c%22Oid%22%3a%22547b80ec-2a06-4ee3-9db3-284f1d3892c9%22%7d,http://tedxoxford.co.uk/,https://www.facebook.com/TEDxOxford,https://www.instagram.com/tedxoxford/,,https://twitter.com/TEDxOxford?ref_src=twsrc%5Egoogle%7Ctwcamp%5Eserp%7Ctwgr%5Eauthor,https://docs.google.com/spreadsheets/d/1wNpzkxE4lGfSpVpq4-w92Xqtu4MhICIcpSnDgJ1-AF0/edit#gid=0
38,Oxford Turl Street Orchestra,,,Music,img/logos/38.jpg,,https://teams.microsoft.com/l/meetup-join/19%3ameeting_MDdkMzU0NDgtNWU3NC00YjYzLTk5ZDEtZGNjNzNjMzhkYTMx%40thread.v2/0?context=%7b%22Tid%22%3a%22cc95de1b-97f5-4f93-b4ba-fe68b852cf91%22%2c%22Oid%22%3a%22ceaa99f6-1b82-4ae8-9ad7-97ab8defdabd%22%7d,,,,,,https://forms.gle/CKh71XpZXxNxf13d6 
39,Oxford Alpha Fund,,,Careers,img/logos/39.png,https://www.youtube.com/embed/3HLloUh6HTw,https://teams.microsoft.com/l/meetup-join/19%3ameeting_YjgzNjQzMzMtZTY1Mi00MWZmLWI1OTAtNTM5NmJiMzJjNmY2%40thread.v2/0?context=%7b%22Tid%22%3a%22cc95de1b-97f5-4f93-b4ba-fe68b852cf91%22%2c%22Oid%22%3a%225260f95e-a9a4-4d4f-8f9d-ecb75843fbd1%22%7d,https://www.oxfordalphafund.com/,https://www.facebook.com/oxfordalphafund,,,https://www.linkedin.com/company/oxford-alpha-fund,
40,Effective Altruism Oxford,,,Campaigning,img/logos/40.jpg,https://www.youtube.com/embed/GvEI_F-Z8RQ,https://teams.microsoft.com/l/meetup-join/19%3ameeting_OWRkM2NiMjktN2I5MS00ZTQxLWFhY2QtNDUwZDc5YzI3Zjlh%40thread.v2/0?context=%7b%22Tid%22%3a%22cc95de1b-97f5-4f93-b4ba-fe68b852cf91%22%2c%22Oid%22%3a%2250d453b5-b69b-4747-954f-15d7a06c6616%22%7d,https://eaoxford.com/,https://www.facebook.com/EAOxford,,https://www.youtube.com/channel/UCkuRfO282SkcT-9BCDFaZZg?view_as=subscriber,,http://eepurl.com/cwEdgz
41,Oxford Venture Capital Network,,,Careers,img/logos/41.jpg,https://www.youtube.com/embed/xZcEiygJfk0,https://teams.microsoft.com/l/meetup-join/19%3ameeting_YjYzNGI4NzEtYmVlMy00ZWZlLWFmMjYtYmM1NjkzZGUxY2E5%40thread.v2/0?context=%7b%22Tid%22%3a%22cc95de1b-97f5-4f93-b4ba-fe68b852cf91%22%2c%22Oid%22%3a%227ba8e90e-ea98-48b1-b174-4a3005128bf1%22%7d,https://www.oxvcnetwork.com/,https://www.facebook.com/oxfordvc/,,,,https://forms.gle/CYRf6QQH1DYeUvR96
42,Oxford University Music Society,,,Music,img/logos/42.png,https://www.youtube.com/embed/3SMppDMMlu4,https://teams.microsoft.com/l/meetup-join/19%3ameeting_NTgzMDk0OGMtY2NhMC00ZDk4LWI4YjEtMzI0OWY3ZTgyYTVi%40thread.v2/0?context=%7b%22Tid%22%3a%22cc95de1b-97f5-4f93-b4ba-fe68b852cf91%22%2c%22Oid%22%3a%2229ddb6bf-90aa-4e7d-a206-8276fa3a95e1%22%7d,oums.org,http://www.instagram.com/OUMusicSociety,,,,
43,Oxford University History Society,,,Academic,img/logos/43.png,https://www.youtube.com/embed/aq5JK6Amyco,https://teams.microsoft.com/l/meetup-join/19%3ameeting_OTlmMjRkNDUtMGY4YS00OGQ3LTgzYjMtNmY4YzIwNGU1ODc3%40thread.v2/0?context=%7b%22Tid%22%3a%22cc95de1b-97f5-4f93-b4ba-fe68b852cf91%22%2c%22Oid%22%3a%2260b860b9-4c64-409d-87ea-c6555e55e04f%22%7d,www.ouhs.org,https://www.facebook.com/OUHistorySociety/,www.instagram.com/ouhistorysociety,,,https://www.ouhs.org/membership
44,Oxford Austrian Society,,,Cultural,img/logos/44.jpg,https://www.youtube.com/embed/4NgIbANWjO8,https://teams.microsoft.com/l/meetup-join/19%3ameeting_NGQxMDBjZTktZGU1ZS00MjVjLTkzMWUtZDUzOTVkMjU5NTdi%40thread.v2/0?context=%7b%22Tid%22%3a%22cc95de1b-97f5-4f93-b4ba-fe68b852cf91%22%2c%22Oid%22%3a%2263893b42-cadf-4f97-85cc-4abdad25b80c%22%7d,,https://www.facebook.com/OUAustrianSoc,,,,https://facebook.us13.list-manage.com/subscribe?u=50e63aa64bed04837b3ea4af4&id=6075d7a0f4
45,Oxford Climate Justice Campaign,,,Campaigning,img/logos/45.png,https://www.youtube.com/embed/UoZX2DEYN8k,https://teams.microsoft.com/l/meetup-join/19%3ameeting_NDY4N2FmOGItYmIwZC00NzNiLTg1OWUtMzQ3NmYzYjQ3NTQx%40thread.v2/0?context=%7b%22Tid%22%3a%22cc95de1b-97f5-4f93-b4ba-fe68b852cf91%22%2c%22Oid%22%3a%227406c7e1-089f-465d-9dff-1e77ac1c4849%22%7d,https://oxfordunifossilfree.wordpress.com/,https://www.facebook.com/OxfordClimateJustice,,https://youtube.com/channel/UCLqwQ4n9i2u4dQuqoHg-N0A,,
46,Oxford Psychedelic Society,,,Other,img/logos/46.png,https://www.youtube.com/embed/AUhUwCAJqcU,https://teams.microsoft.com/l/meetup-join/19%3ameeting_ODk2Zjc4MDYtM2I1Ni00MDE1LWIzZWUtOTMxMjg5NGFlMjkw%40thread.v2/0?context=%7b%22Tid%22%3a%22cc95de1b-97f5-4f93-b4ba-fe68b852cf91%22%2c%22Oid%22%3a%22e4687a6e-64d0-4347-b7c5-4600c1001ca9%22%7d,www.oxpsysoc.org/,www.facebook.com/oxpsysoc,www.instagram.com/oxfordpsychedelicsociety,https://www.youtube.com/channel/UCfoUteV5TkHewU8gHNeuBtg,http://www.twitter.com/OxPsySoc,oxpsysoc.org
47,Oxford Mixed Heritage Society,,,Cultural,img/logos/47.jpg,https://www.youtube.com/embed/qyOiHLaQYLs,https://teams.microsoft.com/l/meetup-join/19%3ameeting_MDQ5MTdlNGEtYTU3Ny00ZDMzLWFlZWItZmUyMjA5N2Q2ZmNj%40thread.v2/0?context=%7b%22Tid%22%3a%22cc95de1b-97f5-4f93-b4ba-fe68b852cf91%22%2c%22Oid%22%3a%22936f8d6b-be41-47b0-8148-b068e954f409%22%7d,https://www.oxfordmhs.org/,https://www.facebook.com/oxmixedheritage/,oxmixedheritage,,,
48,Oxford University Czech and Slovak Society (OUCSS),,,Cultural,img/logos/48.jpg,,https://teams.microsoft.com/dl/launcher/launcher.html?type=meetup-join&deeplinkId=4acd6a97-7bf7-4420-b74b-5ed506f921f2&directDl=true&msLaunch=true&enableMobilePage=true&url=%2F_%23%2Fl%2Fmeetup-join%2F19%3Ameeting_N2M1MjY4ZDAtOTUxMi00ZjBhLWE5YTgtNDcxMTRmZDU2MWI2@thread.v2%2F0%3Fcontext%3D%257b%2522Tid%2522%253a%2522cc95de1b-97f5-4f93-b4ba-fe68b852cf91%2522%252c%2522Oid%2522%253a%2522a89eef12-976e-4dc3-9077-1e47c0b95aac%2522%257d%26anon%3Dtrue&suppressPrompt=true; https://teams.microsoft.com/dl/launcher/launcher.html?type=meetup-join&deeplinkId=adeebccf-1bea-411a-8a1f-92fdcf2b7a10&directDl=true&msLaunch=true&enableMobilePage=true&url=%2F_%23%2Fl%2Fmeetup-join%2F19%3Ameeting_NTNmODkwMzctM2Y5OS00ZWQ4LTg2OTEtNzc3MjNmYjU3NzI3@thread.v2%2F0%3Fcontext%3D%257b%2522Tid%2522%253a%2522cc95de1b-97f5-4f93-b4ba-fe68b852cf91%2522%252c%2522Oid%2522%253a%2522a89eef12-976e-4dc3-9077-1e47c0b95aac%2522%257d%26anon%3Dtrue&suppressPrompt=true,https://oucss.co.uk/,https://www.facebook.com/OUCSS,,,,
49,Oxford University Coding Society (CodeSoc),,,Other,img/logos/49.jpg,,https://teams.microsoft.com/l/meetup-join/19%3ameeting_YTQ2ODE5NGItNzIyZC00YmNkLWJmZjUtNzVhMDBkNThiNjk4%40thread.v2/0?context=%7b%22Tid%22%3a%22cc95de1b-97f5-4f93-b4ba-fe68b852cf91%22%2c%22Oid%22%3a%22c32e0790-70e2-4275-9dbc-23a296acb681%22%7d,http://www.codesoc.co.uk/,https://fb.me/OUCodeSoc,,,,
50,Cymdeithas Dafydd ap Gwilym / Oxford University Welsh Society,,,Cultural,img/logos/50.jpg,https://www.youtube.com/embed/Jt5vq4vcHNk,https://teams.microsoft.com/l/meetup-join/19%3ameeting_ZDQ4MzQxNzEtMTdlOS00ODllLTg3YTgtMTk4Yjk4YzgxY2My%40thread.v2/0?context=%7b%22Tid%22%3a%22cc95de1b-97f5-4f93-b4ba-fe68b852cf91%22%2c%22Oid%22%3a%22d8e38868-6214-4d16-a15c-8eb61f13fd71%22%7d,https://cymdeithasydafydd.weebly.com/,Cymdeithas Dafydd ap Gwilym,@cymdeithasdafyddap,,,
51,Oxford University Science Fiction and Fantasy Group (OUSFG),,,Other,img/logos/51.png,https://www.youtube.com/embed/ouegemaHfkc,https://teams.microsoft.com/l/meetup-join/19%3ameeting_NTVkNGU0MTQtZmVjZi00MmRkLTgwMWUtMjQ3MmQ2ZWM1NGQw%40thread.v2/0?context=%7b%22Tid%22%3a%22cc95de1b-97f5-4f93-b4ba-fe68b852cf91%22%2c%22Oid%22%3a%220f882347-bcbe-4e77-b471-903163385492%22%7d,,https://www.facebook.com/ousfg/,,,mailto:ousfg2020@gmail.com,
52,Oxford Finance Society,,,Careers,img/logos/52.png,https://www.youtube.com/embed/nxDzdRPQGNA,https://teams.microsoft.com/dl/launcher/launcher.html?type=meetup-join&deeplinkId=f9db1267-33b2-498a-b7fd-db2a826c648e&directDl=true&msLaunch=true&enableMobilePage=true&url=%2F_%23%2Fl%2Fmeetup-join%2F19%3Ameeting_NjYyYmQ4MjktYmJlNS00ZDYzLWI5MDYtODJiNmNjYzE2MWVl@thread.v2%2F0%3Fcontext%3D%257b%2522Tid%2522%253a%2522cc95de1b-97f5-4f93-b4ba-fe68b852cf91%2522%252c%2522Oid%2522%253a%2522fef7fc1f-1fb1-4bd2-9565-6c017dec91ac%2522%257d%26anon%3Dtrue&suppressPrompt=true,https://www.oxfordfinancesociety.org/,https://www.facebook.com/oxfordfinancesociety,https://www.instagram.com/oxfordfinancesoc/,https://www.youtube.com/channel/UCnI4oUaC7WFNz_lkWhIfu1Q,https://www.linkedin.com/company/4998800/admin/,https://www.oxfordfinancesociety.org/join-us
53,OCI (Oxford Consulting Initiative),,,Careers,img/logos/53.png,https://www.youtube.com/embed/BKuZTbpen04,https://teams.microsoft.com/l/meetup-join/19%3ameeting_YjdhNTM5Y2UtNTlhOS00MDQxLTgxMzgtODJjNmQ5OGRmOWY0%40thread.v2/0?context=%7b%22Tid%22%3a%22cc95de1b-97f5-4f93-b4ba-fe68b852cf91%22%2c%22Oid%22%3a%22f5cacc44-f8db-4b0f-8d50-2121508cdadd%22%7d,https://www.oxfordconsultinginitiative.co.uk/,https://www.facebook.com/oxfordconsultinginitiative,,,,https://forms.gle/DUYEYdLvHu2xaefCA
54,HUMSoc - Oxford University Hindu Society,,,Cultural,img/logos/54.png,https://www.youtube.com/embed/LLKV2Sh_IFM,https://teams.microsoft.com/l/meetup-join/19%3ameeting_ZjM4ZmJlMjMtM2IxMy00MTM3LThjNGYtNjU3ODA5YjRmNzAy%40thread.v2/0?context=%7b%22Tid%22%3a%22cc95de1b-97f5-4f93-b4ba-fe68b852cf91%22%2c%22Oid%22%3a%229c997051-6e2d-4bbe-962e-c66b6a4bfc6d%22%7d,www.oxfordhindusociety.co.uk,https://www.facebook.com/oxfordhumsoc/,https://www.instagram.com/humsoc_oxford/,https://www.youtube.com/channel/UCTJy6MUgWsbPbaDaap1Z25Q,,
55,First Love Society,,,Faith,img/logos/55.jpg,https://www.youtube.com/embed/NDaPAyQKpp0,https://teams.microsoft.com/l/meetup-join/19%3ameeting_NWVkODMxZTAtNDM1My00Y2M2LTk1MmYtYTdkYTg1M2FmMDkw%40thread.v2/0?context=%7b%22Tid%22%3a%22cc95de1b-97f5-4f93-b4ba-fe68b852cf91%22%2c%22Oid%22%3a%22b282aa5e-d617-4c8d-94f0-6299636fe88e%22%7d,,,www.instagram.com/firstlovemk,,,https://docs.google.com/forms/d/e/1FAIpQLSfL8lndgxoFPPUcTS-02wJO-31SUhzak-5WjQxlejGhlRZW9Q/viewform
56,Oxford University Sikh Society,,,Faith,img/logos/56.png,https://www.youtube.com/embed/bFeb2Ckp0uA,https://teams.microsoft.com/l/meetup-join/19%3ameeting_NTk3MmI2ODgtZDI3Zi00OGFhLThlZmItZGVlYjEyZTFjMWI3%40thread.v2/0?context=%7b%22Tid%22%3a%22cc95de1b-97f5-4f93-b4ba-fe68b852cf91%22%2c%22Oid%22%3a%221ab5fa7c-b594-4ef4-8a90-c250ce185c5d%22%7d,,https://www.facebook.com/oxfordsikhsoc/,http://www.instagram.com/oxfordsikhsoc,,,
57,Oxford Women* in Law Student Society (OWLSS),,,Careers,img/logos/57.png,https://www.youtube.com/embed/OPg-XcMuECU,https://teams.microsoft.com/l/meetup-join/19%3ameeting_YjlhODkyZmYtZDY1NC00ZjVlLWE4OTEtMWE0YTY5MDczODEy%40thread.v2/0?context=%7b%22Tid%22%3a%22cc95de1b-97f5-4f93-b4ba-fe68b852cf91%22%2c%22Oid%22%3a%221059fa5d-2219-4a0f-86af-dd70031c5891%22%7d,https://www.oxfordwomeninlaw.com,https://www.facebook.com/OxWLSS,https://www.instagram.com/oxwomeninlaw19/,,https://twitter.com/oxwomeninlaw19,
58,CapitOx,,,Careers,img/logos/58.png,https://www.youtube.com/embed/d1vlUuUnDXw,https://teams.microsoft.com/l/meetup-join/19%3ameeting_ODJhYjViMzktYzNkNC00ZDAxLWEwNmMtMWM5MGQ1MTAyMDI5%40thread.v2/0?context=%7b%22Tid%22%3a%22cc95de1b-97f5-4f93-b4ba-fe68b852cf91%22%2c%22Oid%22%3a%22500691df-ba31-4421-93a3-76a1b1cb490c%22%7d,https://www.capitox.co.uk/,https://www.facebook.com/CapitOx,,https://www.youtube.com/channel/UCvekj5VhjosOwRLSILDuVCw,https://www.linkedin.com/company/capitox/,http://www.tinyurl.com/capitox2020
59,The Oxford Blue,,,Other,img/logos/59.png,https://www.youtube.com/embed/z4hDiKSlid4,https://teams.microsoft.com/l/meetup-join/19%3ameeting_YmFkM2U0OWItYWFkZC00MmI4LWIxOTEtMGEwNmI0YWIwMTI3%40thread.v2/0?context=%7b%22Tid%22%3a%22cc95de1b-97f5-4f93-b4ba-fe68b852cf91%22%2c%22Oid%22%3a%22870f2195-6504-47fb-a521-50a77543492b%22%7d,https://www.theoxfordblue.co.uk/,https://www.facebook.com/theoxfordblue,https://www.instagram.com/theoxfordblue/,https://www.youtube.com/channel/UC0E1gMZMkqlPIBpAE7hJ1Eg,,
60,Oxford University Brass Band (OUBB),,,Music,img/logos/60.jpg,https://youtube.com/embed/-UzVaOawtW0,https://teams.microsoft.com/l/meetup-join/19%3ameeting_ZTI3NDhhYjgtOGRiMS00YjYxLTgwZmYtNjE1YTc5OGJkNzgw%40thread.v2/0?context=%7b%22Tid%22%3a%22cc95de1b-97f5-4f93-b4ba-fe68b852cf91%22%2c%22Oid%22%3a%226ef37e51-9e98-4282-82d3-30958360f656%22%7d,http://oubrass.oums.org/,https://www.facebook.com/OxfordUniversityBrassBand/,https://instagram.com/oxforduniversitybrassband,,,
61,Oxford Hungarian Society,,,Cultural,img/logos/61.png,,https://teams.microsoft.com/l/meetup-join/19%3ameeting_YTdmMzMzMGYtNmZhZS00NzdkLTg2YzgtZDNlMjc0MWUxNDk2%40thread.v2/0?context=%7b%22Tid%22%3a%22cc95de1b-97f5-4f93-b4ba-fe68b852cf91%22%2c%22Oid%22%3a%22475eb6cd-a945-4f5c-85c6-0d66b797ec2c%22%7d,http://hungsoc.com/,https://www.facebook.com/oxfordhungariansociety,,,https://www.linkedin.com/company/oxford-hungarian-society/,https://forms.office.com/Pages/ResponsePage.aspx?id=DQSIkWdsW0yxEjajBLZtrQAAAAAAAAAAAANAAfdv3sZUNlAzMjNXSUMzWkxaQUpDUjNDU1M5VVlTMC4u
62,The Beatroots,,,Music,img/logos/62.png,,https://teams.microsoft.com/l/meetup-join/19%3ameeting_ZjY2OGM2Y2QtNmZhMS00MWIxLThjZDYtZTA2NTgxMzk0YWUw%40thread.v2/0?context=%7b%22Tid%22%3a%22cc95de1b-97f5-4f93-b4ba-fe68b852cf91%22%2c%22Oid%22%3a%22684862c5-b2f2-4f8a-b428-a925e529e6c6%22%7d,,www.facebook.com/beatrootsacappella,,beatrootsacappella,,
63,InsideUni,,,Volunteering,img/logos/63.png,https://www.youtube.com/embed/bpa-Nlu0fWs,https://teams.microsoft.com/l/meetup-join/19%3ameeting_N2FmMGNjZWUtODk4YS00ZjgxLWIwOTEtNzUyYjk3MjYxZTQ2%40thread.v2/0?context=%7b%22Tid%22%3a%22cc95de1b-97f5-4f93-b4ba-fe68b852cf91%22%2c%22Oid%22%3a%2216f22b45-3e74-4a09-80ea-b748d5e5fba5%22%7d,https://insideuni.org,https://www.facebook.com/insideuni.org,https://www.instagram.com/inside.uni/,https://www.youtube.com/channel/UChWl1VmWzO20JJHIhe9vyJQ,https://docs.google.com/forms/d/e/1FAIpQLSdesX2GoaVUXcxuJ73YKVkBWJcvWM7DZt7u38awrl5lfcW1ew/viewform?usp=sf_link,https://docs.google.com/forms/d/e/1FAIpQLSebIzmFIezOhMp1AoqDRGpSX2S-tPmFPgnfYzOcOI4FB3a3Gg/viewform?usp=sf_link
64,Schola Cantorum of Oxford,,,Music,img/logos/64.png,https://www.youtube.com/embed/U54LhZRjXzY,https://teams.microsoft.com/meetingOptions/?organizerId=a7f9adc0-bc1b-4bfd-9c11-e5da46a975fe&tenantId=cc95de1b-97f5-4f93-b4ba-fe68b852cf91&threadId=19_meeting_YTkyNzAzYTItOTc4Yi00ZGVjLWEzMmUtMjY0YzVjMTQyMmFi@thread.v2&messageId=0&language=en-GB,http://www.schola-cantorum.net/,https://www.facebook.com/scholacantorumoxford/,https://www.instagram.com/scholacantorumoxford/,,,
65,Oxford University Sri Lanka Society,,,Cultural,img/logos/65.jpg,https://www.youtube.com/embed/gg4WsqN8c48,https://teams.microsoft.com/l/meetup-join/19%3ameeting_ZTU1YTM3MDktMTQxZC00MTE4LTk2ZGEtNWZkOWRkMjk3ZTk4%40thread.v2/0?context=%7b%22Tid%22%3a%22cc95de1b-97f5-4f93-b4ba-fe68b852cf91%22%2c%22Oid%22%3a%222d61b76e-1218-47ef-a618-5bed5453e0ce%22%7d,,https://www.facebook.com/ouslsoc,,,,
66,Oxford University English Society,,,Academic,img/logos/66.png,,https://teams.microsoft.com/l/meetup-join/19%3ameeting_MDA3M2RmNWYtYTI0NS00MDBhLWJmZWItZmM1MTE1OTJiMTdk%40thread.v2/0?context=%7b%22Tid%22%3a%22cc95de1b-97f5-4f93-b4ba-fe68b852cf91%22%2c%22Oid%22%3a%227da474e0-4555-4570-9809-2a51e35b0485%22%7d,,https://www.facebook.com/oxfordenglishsociety,,,https://oxfordenglishsociety.wordpress.com,https://docs.google.com/forms/d/e/1FAIpQLSdzANxW3ii00djwRScDE-gbFDGnq7xfiG514tCvnYjQezVy8w/viewform?usp=sf_link
67,Disarm Oxford,,,Campaigning,img/logos/67.png,,https://teams.microsoft.com/meetingOptions/?organizerId=46fd4deb-a715-4ef4-b122-ef7ae1acc238&tenantId=cc95de1b-97f5-4f93-b4ba-fe68b852cf91&threadId=19_meeting_ZTZkNmFjZmMtMTE3OC00MGNkLWEyZGMtNjg0YmI2ZDU3M2Vm@thread.v2&messageId=0&language=en-GB,,,,,https://twitter.com/disarmoxford,https://docs.google.com/forms/d/e/1FAIpQLSdCJZsoXVJERpcyxPYBGhLYui7sFXqBCkOcVUwr38YS3sX-4Q/viewform
68,Oxford University Society of Change Ringers,,,Other,img/logos/68.png,https://www.youtube.com/embed/0QZ8WGPRZeo,https://teams.microsoft.com/l/meetup-join/19%3ameeting_MDk3NDFhY2EtOTY1NC00ZWU3LTk1MzAtMTE2YmNkODEwMjg3%40thread.v2/0?context=%7b%22Tid%22%3a%22cc95de1b-97f5-4f93-b4ba-fe68b852cf91%22%2c%22Oid%22%3a%225e32c44b-e886-4bb9-8cc7-92695ca4603a%22%7d,http://www.ouscr.org.uk,,,,,
69,Oxford University Historical Re-enactment Society,,wychwood.society@studentclubs.ox.ac.uk,Other,img/logos/69.jpg,https://www.youtube.com/embed/QnAa8Irk1jk,https://teams.microsoft.com/l/meetup-join/19%3ameeting_M2I1ZGU5NzQtODY3Mi00YzU5LTg2YTctYTM0ZDUxMTE4NjQw%40thread.v2/0?context=%7b%22Tid%22%3a%22cc95de1b-97f5-4f93-b4ba-fe68b852cf91%22%2c%22Oid%22%3a%22b36d0c45-29a3-4ae6-aa0f-346d7099825f%22%7d,http://users.ox.ac.uk/~wychwood/,https://www.facebook.com/wychwoodwarriors/,,,http://wychwood.wikidot.com/termcard,https://docs.google.com/forms/d/e/1FAIpQLSdJ0hxOiiQ_8Zokgzj2QXvFOk0nqLOA3qubCF8XIB9M0BFUYw/viewform
70,The Oxford Doctor Who Society,,,Cultural,img/logos/70.jpg,https://www.youtube.com/embed/o6vkztXuWj4,https://teams.microsoft.com/l/meetup-join/19%3ameeting_NjAzNDZkOTEtMTg4ZS00OGU2LWFhMjEtM2RiZjUyZWU4N2Ix%40thread.v2/0?context=%7b%22Tid%22%3a%22cc95de1b-97f5-4f93-b4ba-fe68b852cf91%22%2c%22Oid%22%3a%222f6921d2-b285-44a3-a9c9-642b2fd2e91c%22%7d,http://users.ox.ac.uk/~whosoc/,https://www.facebook.com/OxfordDoctorWho,,,https://oxforddoctorwho-tidesoftime.blog/oxford-doctor-who-society,https://forms.gle/wCNpbMn8xi5uUtSh9
71,Oxford Hayek Society,,,Academic,img/logos/71.png,,https://teams.microsoft.com/l/meetup-join/19%3ameeting_NmM1Y2RhMTQtZDI1My00YjU0LWFjZjUtNWZiMWU5YjQ1Zjcx%40thread.v2/0?context=%7b%22Tid%22%3a%22cc95de1b-97f5-4f93-b4ba-fe68b852cf91%22%2c%22Oid%22%3a%224c70d8f7-7a86-4529-aeca-c1d715b0a67e%22%7d,,,http://www.instagram.com/oxfordhayek,,,
72,Oxford University Asia-Pacific Society,,,Cultural,img/logos/72.png,,https://teams.microsoft.com/meetingOptions/?organizerId=8ae374a6-bda6-496b-8683-a1a91ffdd54c&tenantId=cc95de1b-97f5-4f93-b4ba-fe68b852cf91&threadId=19_meeting_MmVlZDMwZGMtNjEzOS00MjY3LWE3ZmUtNTI5YmI2OTU5NTAz@thread.v2&messageId=0&language=en-US,http://ouaps.org,https://www.facebook.com/oxfordaps,,,,
73,KEEN Oxford,,,Volunteering,img/logos/73.png,,https://teams.microsoft.com/l/meetup-join/19%3ameeting_MDkwOWE2NzMtYjRiOS00MjlkLWI3YjMtMDIxMjQ5ZjdmNzM3%40thread.v2/0?context=%7b%22Tid%22%3a%224491e889-3396-445d-a986-7441474f2216%22%2c%22Oid%22%3a%229b3e6b17-8f54-4943-8b03-8fe4fe96ae74%22%7d,https://www.keenoxford.org/,https://www.facebook.com/KEENOxford,https://www.instagram.com/keenoxford/?hl=en,,,
74,Oxford Morris,,,Dance & Theatre,img/logos/74.jpg,https://www.youtube.com/embed/xvBZSTL6wcY,https://teams.microsoft.com/l/meetup-join/19%3ameeting_NDc2NjhjMTUtODA3NS00MmE3LWI3MjYtMzc1NGIzNjE4ZDE2%40thread.v2/0?context=%7b%22Tid%22%3a%22cc95de1b-97f5-4f93-b4ba-fe68b852cf91%22%2c%22Oid%22%3a%222f48dafc-2fa1-4fad-8f5f-dfa52cb605a1%22%7d,https://oxforduniversitymorris.wordpress.com/,https://www.facebook.com/OxfordUniversityMorris,,https://www.youtube.com/channel/UCCUT3xvDoIKOZTB6XyrNxcA,,https://tinyurl.com/oxf-morris-2020-signup
75,Oxford First Aid Society,,,Volunteering,img/logos/75.png,https://www.youtube.com/embed/cBV4sb7_Fq4,https://teams.microsoft.com/l/meetup-join/19%3ameeting_ZWEwMjAzZmQtNTIxYi00YzA2LTk0MGYtMmIyZDRiMzk4ODRl%40thread.v2/0?context=%7b%22Tid%22%3a%22cc95de1b-97f5-4f93-b4ba-fe68b852cf91%22%2c%22Oid%22%3a%222f48dafc-2fa1-4fad-8f5f-dfa52cb605a1%22%7d,,,,,,https://tinyurl.com/oxf-first-aid-2020-signup
76,Oxford University Officersâ€™ Training Corps,,,Volunteering,img/logos/76.png,https://www.youtube.com/embed/AuDd_Qls3i4,https://teams.microsoft.com/l/meetup-join/19%3ameeting_ODVkZWI3MTYtMGY0OS00Y2I1LWIwNjQtMDUzMjg2MGJhZDA5%40thread.v2/0?context=%7b%22Tid%22%3a%22cc95de1b-97f5-4f93-b4ba-fe68b852cf91%22%2c%22Oid%22%3a%22b06a97f3-0c74-4151-9742-6a0bafc05d09%22%7d,https://www.army.mod.uk/who-we-are/corps-regiments-and-units/university-officers-training-corps/oxford-uotc/,https://www.facebook.com/OUOTC,https://www.instagram.com/oxforduotc/,,,
77,Oxford University Society of Ageing and Longevity,,,Academic,img/logos/77.jpg,,https://teams.microsoft.com/meetingOptions/?organizerId=beff4d05-1354-4a3d-baf8-5bf47f033072&tenantId=cc95de1b-97f5-4f93-b4ba-fe68b852cf91&threadId=19_meeting_MmQ0OTg2YmMtMTIzYS00NGFjLTgwZTItZGEzNTMyZTIwNTM2@thread.v2&messageId=0&language=de-DE,www.ageingandlongevity.com,,https://www.instagram.com/ageingandlongevity/,,,http://www.ageingandlongevity.com
78,Oxford Students for Liberty (OSFL),,,Other,img/logos/78.png,,https://teams.microsoft.com/l/meetup-join/19%3ameeting_YTBjNWRjYWQtMjY5ZC00MGQyLWI2ZDUtYjU1YmNmYTViMTQ1%40thread.v2/0?context=%7b%22Tid%22%3a%22cc95de1b-97f5-4f93-b4ba-fe68b852cf91%22%2c%22Oid%22%3a%229fe4bddb-aa22-414e-9309-a74a8df136e2%22%7d,,https://www.facebook.com/OxfordStudentsForLiberty,,,https://discord.gg/DAxRzm5,
79,Six Degrees Oxford,,,Careers,img/logos/79.jpg,,https://teams.microsoft.com/l/meetup-join/19%3ameeting_MjljNjdkNmYtZWMxNC00MzBiLTk0MTItNWU2MzdiMjhjMDEy%40thread.v2/0?context=%7b%22Tid%22%3a%22cc95de1b-97f5-4f93-b4ba-fe68b852cf91%22%2c%22Oid%22%3a%2206ba7130-cab3-4bb5-b43e-87d7cac6ff0f%22%7d,https://www.sixdegreesoxford.com/,https://www.facebook.com/SixDegreesOxford,,,https://www.linkedin.com/company/six-degrees-oxford/,
80,Oxford University Indonesia Society (OXONIS),,,Cultural,img/logos/80.png,,https://teams.microsoft.com/l/meetup-join/19%3ameeting_OWEzOWUxODQtMDE0MS00MDVlLWJlOGMtZTM2YTkwY2E4YjVi%40thread.v2/0?context=%7b%22Tid%22%3a%22cc95de1b-97f5-4f93-b4ba-fe68b852cf91%22%2c%22Oid%22%3a%2251878ec6-49d7-43af-920b-367b3b5e81cd%22%7d,http://oxonis.com/,https://www.facebook.com/ox.indonesia.society,https://www.instagram.com/oxonis_oxford/,,,https://docs.google.com/forms/d/1AQdMLEFeC2qtFCxWWdOD-OHQKmNXeRQ99Umo1Oma6_Q/edit
81,Broad Street Humanities Review,,,Academic,img/logos/81.png,https://www.youtube.com/embed/ZFol1dAQpYY,https://teams.microsoft.com/dl/launcher/launcher.html?url=%2F_%23%2Fl%2Fmeetup-join%2F19%3Ameeting_ZGJhMDI5MjItMWViOC00NDE5LTk3ZmMtZjkwMDZiNDBlMTA2%40thread.v2%2F0%3Fcontext%3D%257b%2522Tid%2522%253a%2522cc95de1b-97f5-4f93-b4ba-fe68b852cf91%2522%252c%2522Oid%2522%253a%2522eee6a78c-2bbe-4996-bf82-cb7b5090f585%2522%257d%26anon%3Dtrue&type=meetup-join&deeplinkId=3fab1f72-771d-425b-9700-1a23316313a2&directDl=true&msLaunch=true&enableMobilePage=true&suppressPrompt=true,https://broadstreethumanitiesreview.com,https://www.facebook.com/BroadStreetHumanitiesReview,http://www.instagram.com/BSHReview,,https://www.linkedin.com/company/broadstreethumanitiesreview,http://tinyurl.com/BSHR-mailing-list-signup
82,nanovert,,,Commercial,img/logos/82.png,,,https://nano-vert.co.uk/,,http://www.instagram.com/nanovertuk,,,
83,The Invariants (Oxford University Maths Society),,,Academic,img/logos/83.png,,https://teams.microsoft.com/l/meetup-join/19%3ameeting_N2VhMzE5ZmItZGViZi00ZDQ3LTk0YzctMjY2MzQ5N2YxYjg2%40thread.v2/0?context=%7b%22Tid%22%3a%22cc95de1b-97f5-4f93-b4ba-fe68b852cf91%22%2c%22Oid%22%3a%22f4110be9-ed00-4ad1-a785-85e6964b1e38%22%7d,http://invariants.org.uk,https://www.facebook.com/oxford.invariants,,,,http://invariants.org.uk
84,Oxford Hands On Science,,,Volunteering,img/logos/84.png,,https://teams.microsoft.com/l/meetup-join/19%3ameeting_N2VhZjMwNWMtMzk5NS00OWEwLThlZTktNjc0YTVkM2M0ZDgw%40thread.v2/0?context=%7b%22Tid%22%3a%22cc95de1b-97f5-4f93-b4ba-fe68b852cf91%22%2c%22Oid%22%3a%2220c1a7eb-13a8-4eef-801c-773738800614%22%7d,http://oxhos.org,https://www.facebook.com/oxfordhandsonscience,http://www.instagram.com/ox_hos,,,https://www.smartsurvey.co.uk/s/OA7FSD/
85,Oxford Union Society,,,Academic,img/logos/85.jpg,https://www.youtube.com/embed/3BB7dXfiUtY,https://teams.microsoft.com/l/meetup-join/19%3ameeting_YmUxMTkzMjItNGVlZC00ZWFjLWIxY2UtZmYwNzE1Y2M4Y2E2%40thread.v2/0?context=%7b%22Tid%22%3a%22cc95de1b-97f5-4f93-b4ba-fe68b852cf91%22%2c%22Oid%22%3a%2216f037c0-3704-469e-b20c-826e9273a954%22%7d,https://www.oxford-union.org/,https://www.facebook.com/theoxfordunion,https://www.instagram.com/theoxfordunion/?hl=en,https://www.youtube.com/channel/UCY7dD6waquGnKTZSumPMTlQ,,https://forms.gle/rQd2x4cPcBRZEDGMA
86,Oxford Gregorian Chant Society (Schola Abelis),,,Music,img/logos/86.jpg,,https://teams.microsoft.com/l/meetup-join/19%3ameeting_NTg1NDQ0YmEtY2YyYi00NzJkLTk0MTUtOGZjNjU4NWI4NWJl%40thread.v2/0?context=%7b%22Tid%22%3a%22cc95de1b-97f5-4f93-b4ba-fe68b852cf91%22%2c%22Oid%22%3a%22414cbc3c-9cc2-4f86-bef6-51caa69e8ac4%22%7d,https://oxfordgregorianchant.blogspot.com/,,,,,https://oxfordgregorianchant.blogspot.com/p/welcome.html
87,OX1 Incubator,,,Other,img/logos/87.png,https://www.youtube.com/embed/sEaJ72q9-HE,https://teams.microsoft.com/l/meetup-join/19%3ameeting_ZWQyNzlmYjEtYTk2My00MTllLWI1NTEtMzhiODNmZmZkNDVl%40thread.v2/0?context=%7b%22Tid%22%3a%22cc95de1b-97f5-4f93-b4ba-fe68b852cf91%22%2c%22Oid%22%3a%22db30a555-4b35-4afa-b19d-ba1751578333%22%7d,http://ox1incubator.com,https://www.facebook.com/ox1incubator/,,,https://www.linkedin.com/company/ox1incubator/,
88,Oxford University Scottish Dancing Society (OUSDS),,,Dance & Theatre,img/logos/88.png,,https://teams.microsoft.com/l/meetup-join/19%3ameeting_MWMyN2E3N2ItM2Q5OC00YWQ3LTk2NGItY2IwZTAyZjI1N2Rh%40thread.v2/0?context=%7b%22Tid%22%3a%22cc95de1b-97f5-4f93-b4ba-fe68b852cf91%22%2c%22Oid%22%3a%22abbed343-9a88-4d76-a6dc-97f6e396eccb%22%7d,ousds.web.ox.ac.uk,https://www.facebook.com/oxforduniversityscottishdancesociety,,https://www.youtube.com/user/scodance/featured,,
89,Oxford University Cave Club,,,Sport,img/logos/89.png,,https://teams.microsoft.com/l/meetup-join/19%3ameeting_NmE3ZjY1ZTAtZDI5NC00ZjhkLWJiNGEtZjcyYzg3MTQyNTdl%40thread.v2/0?context=%7b%22Tid%22%3a%22cc95de1b-97f5-4f93-b4ba-fe68b852cf91%22%2c%22Oid%22%3a%22eed4dec1-504e-4534-8ef6-a69a22c5d651%22%7d,http://www.oucc.org.uk/current/cavingFAQ.htm,https://www.facebook.com/groups/181624371923509,https://www.instagram.com/oxford_uni_caving/,,https://docs.google.com/forms/d/e/1FAIpQLSf0EHFL0ERmAzcQwPX5TJq_sgDhPgGcqZIc06CVQOdYqm-Vaw/viewform,https://docs.google.com/forms/d/e/1FAIpQLSf0EHFL0ERmAzcQwPX5TJq_sgDhPgGcqZIc06CVQOdYqm-Vaw/viewform
90,Oxford University Psychology Society,,,Academic,img/logos/90.png,,,https://www.oxfordpsychsoc.com,https://www.facebook.com/oxfordpsychsoc/,,,https://www.oxfordpsychsoc.com/about,https://www.oxfordpsychsoc.com/subscribe
91,Oxford University Light Entertainment Society (OULES),,,Dance & Theatre,img/logos/91.png,https://www.youtube.com/embed/gqWRyXKhxhc,https://teams.microsoft.com/l/meetup-join/19%3ameeting_YzEwNTg1OGItMTMxOS00NTQxLWE1MTItNzQ3N2I1ZWI3MTJm%40thread.v2/0?context=%7b%22Tid%22%3a%22cc95de1b-97f5-4f93-b4ba-fe68b852cf91%22%2c%22Oid%22%3a%22e806b2af-9572-44e7-a014-d6677c6ac0b5%22%7d,http://oules.lightentertainment.org/,https://www.facebook.com/oxforduniversitylightentertainmentsociety,,https://www.youtube.com/channel/UC3fcmSpU4d-zeU6yyweXdmQ,,https://docs.google.com/forms/d/e/1FAIpQLSfNtL8w5M57bzh5PAZqHfY-KRKfQTw5D3WE9YzfLFieTrLnKg/viewform
92,SynBio.Oxford,,,Academic,img/logos/92.jpg,,https://teams.microsoft.com/l/meetup-join/19%3ameeting_Y2E2YTQwMWItYjY5ZS00ZmYxLThkYTAtY2UxOWI1MTNmODU3%40thread.v2/0?context=%7b%22Tid%22%3a%22cc95de1b-97f5-4f93-b4ba-fe68b852cf91%22%2c%22Oid%22%3a%2217260233-3f42-4e3b-bd26-298268f6879e%22%7d,http://synbio-oxford.org/,https://www.facebook.com/synoxford/,,,https://twitter.com/synbiooxford?lang=en,https://bit.ly/3cJiNtz
93,Oxford University Catholic Chaplaincy,,,Faith,img/logos/93.png,https://www.youtube.com/embed/XevLcmmhoo4 (will be published on Sunday of 0th week),https://teams.microsoft.com/l/meetup-join/19%3ameeting_OWQxNjQ2MDktODJmMC00MWEyLTkzNTMtMjcxNzI4MTU0ZTI3%40thread.v2/0?context=%7b%22Tid%22%3a%22cc95de1b-97f5-4f93-b4ba-fe68b852cf91%22%2c%22Oid%22%3a%22b1ac8995-547e-4870-8824-147d7c64a6df%22%7d,https://www.catholic-chaplaincy.org.uk/student-chaplaincy/,https://www.facebook.com/oxfordchaplaincy/,https://www.instagram.com/oxfordchaplaincy/,https://www.youtube.com/channel/UCfJkJpoDrSjGI_WaYVNFr-g,,
94,Oxford Guild of Assassins,,,Other,img/logos/94.png,,,,https://www.facebook.com/groups/245659739659659,,,,https://docs.google.com/forms/d/1U_tAS8mUAseKJmh-EEVqA4raiushh3CnM9PN0SVKd9I/edit
95,Oxford University Taiwanese Student Society,,,Cultural,img/logos/95.jpg,,https://teams.microsoft.com/l/meetup-join/19%3ameeting_ZmM5Y2Y0MWItMTEzYy00NDRkLWFhNzctNWYxZjg0ZjUwZjVm%40thread.v2/0?context=%7b%22Tid%22%3a%22cc95de1b-97f5-4f93-b4ba-fe68b852cf91%22%2c%22Oid%22%3a%2241c4d8d0-b55d-460e-af39-07e4b4f19185%22%7d,https://outss.web.ox.ac.uk/,https://www.facebook.com/groups/OUTSS,,,,
96,Oxford Latinitas Project,,,Cultural,img/logos/96.jpg,,https://teams.microsoft.com/l/meetup-join/19%3ameeting_MWU0MDE2ZmQtZmEyNy00YzcwLTg4ZDEtMjhiNTEyZTNkYzgw%40thread.v2/0?context=%7b%22Tid%22%3a%22cc95de1b-97f5-4f93-b4ba-fe68b852cf91%22%2c%22Oid%22%3a%22d56aa755-0708-477b-bd41-b61cb03edd17%22%7d,https://oxfordlatinitas.org/,https://it-it.facebook.com/OxfordLatin/,,,https://twitter.com/latinitasoxford,
97,Oxford Economics Society,,,Academic,img/logos/97.png,,https://teams.microsoft.com/l/meetup-join/19%3ameeting_MzhjMzkzNzQtODYyNy00MWZiLTkzZmUtNTVmMGIzNjJlZDZm%40thread.v2/0?context=%7b%22Tid%22%3a%22cc95de1b-97f5-4f93-b4ba-fe68b852cf91%22%2c%22Oid%22%3a%22acf05977-6502-43c6-b879-79b8d33d56ed%22%7d,https://oxfordeconsoc.org,https://www.facebook.com/OxfordEconSoc,,https://www.youtube.com/channel/UC8tThrdb4QUCZLjTgPeAYiQ/videos?fbclid=IwAR1GdzRLXu0058kRttU2_qT8J9rUyl4DMRcwr1N8aDreuPDTv3BHBfISYDI,,https://oxfordeconsoc.org/membership
98,Oxford PPE Society,,,Academic,img/logos/98.jpg,,https://teams.microsoft.com/l/meetup-join/19%3ameeting_YmY0NThiYWEtMTk2OC00MDE1LWE1NDYtZDQyNzA2ZjBiMDA2%40thread.v2/0?context=%7b%22Tid%22%3a%22cc95de1b-97f5-4f93-b4ba-fe68b852cf91%22%2c%22Oid%22%3a%22936c80b4-60ea-42a6-aaf9-7cb9a904a75a%22%7d,https://www.oxfordppesoc.com,https://www.facebook.com/ppesoc,,,https://open.spotify.com/show/4vTQqIICRQc3B5jj9agAKm?si=MEq8CSMJS1uqXoNWN4mylA,https://www.oxfordppesoc.com/join-us
99,Harry Potter Society,,,Other,img/logos/99.png,https://www.youtube.com/embed/RT0zB47mPfc,https://teams.microsoft.com/l/meetup-join/19%3ameeting_ODI0M2E5NjgtOTA3Yi00OWViLWI4ZDctYTYyZWNiYzhjZTRj%40thread.v2/0?context=%7b%22Tid%22%3a%22cc95de1b-97f5-4f93-b4ba-fe68b852cf91%22%2c%22Oid%22%3a%2249daaaf8-6af0-408a-82d7-f1dd61089088%22%7d,https://www.ouhpsoc.org/,https://www.facebook.com/groups/OUHPSoc,,,https://twitter.com/OUHPSoc,
100,OUCA - Oxford University Conservative Association,,,Campaigning,img/logos/100.png,,https://teams.microsoft.com/l/meetup-join/19%3ameeting_MTA5NGEyZTgtYjMxMy00Mzg5LTk4M2QtMjBhZTg4N2Y1NDUw%40thread.v2/0?context=%7b%22Tid%22%3a%22cc95de1b-97f5-4f93-b4ba-fe68b852cf91%22%2c%22Oid%22%3a%2225fd375c-6b72-404d-bc61-8e6a8858ad3f%22%7d,https://www.ouconservatives.com,https://www.facebook.com/OUConservatives,,,,
101,Oxford University Mixed Martial Arts,,,Sport,img/logos/101.jpg,https://www.youtube.com/embed/JiauYR0pzhY,https://teams.microsoft.com/l/meetup-join/19%3ameeting_MjNmYjA3MGMtM2M2ZS00OTg4LTlhNTQtNjA5YTE5YTdkNGI1%40thread.v2/0?context=%7b%22Tid%22%3a%22cc95de1b-97f5-4f93-b4ba-fe68b852cf91%22%2c%22Oid%22%3a%2282e6c4d4-95b6-4d11-96c1-33bd5b2c4fee%22%7d,,https://www.facebook.com/oxfordunimma,https://www.instagram.com/oxforduni_mma/,,,
102,Oxford University Biotech Society,,,Academic,img/logos/102.png,,https://teams.microsoft.com/l/meetup-join/19%3ameeting_YzEwN2YzMDQtZGZjNy00ODFhLWI0ZWItYjNmMTUwYWFjNzI4%40thread.v2/0?context=%7b%22Tid%22%3a%22cc95de1b-97f5-4f93-b4ba-fe68b852cf91%22%2c%22Oid%22%3a%226d42d716-a6bf-45cb-b217-898195b7b1a0%22%7d,http://www.oxfordbiotech.uk,https://www.facebook.com/oxfordbiotech,,,,https://oxfordbiotech.us17.list-manage.com/subscribe?u=9ffb14bdc12261965f0cea692&id=1141b71d3d
103,Oxford Roundnet Society,,,Sport,img/logos/103.png,https://www.youtube.com/embed/g2kNCMdSOFI,https://teams.microsoft.com/l/meetup-join/19%3ameeting_ZjQyNTcwYzctZDlkMy00Mzc2LTg3ZWQtMmZiY2EyNDU1YTk4%40thread.v2/0?context=%7b%22Tid%22%3a%22cc95de1b-97f5-4f93-b4ba-fe68b852cf91%22%2c%22Oid%22%3a%2227fc40a6-24ad-4d51-bded-9d0164e5044f%22%7d,,https://www.facebook.com/oxfordroundnet,http://www.instagram.com/oxfordroundnet,https://www.youtube.com/channel/UCNj1F5xJDR1NYcdWtehiQ3A,,
104,The Oxford Guild,,,Careers,img/logos/104.png,,https://teams.microsoft.com/l/meetup-join/19%3ameeting_YWMxZjkxMDktN2M3Ni00MzNjLThhZTktOTg3YjllODE3M2Jj%40thread.v2/0?context=%7b%22Tid%22%3a%22cc95de1b-97f5-4f93-b4ba-fe68b852cf91%22%2c%22Oid%22%3a%222b59c93d-dc72-49a8-a8aa-586e525bd212%22%7d,https://www.theoxfordguild.com/,https://www.facebook.com/theoxfordguild,,https://www.youtube.com/theoxfordguild,https://www.linkedin.com/company/5337603/,https://www.theoxfordguild.com/join-us/
105,Oxford Robotics and Additive Manufacturing Society (OxRAM),,,Academic,img/logos/105.png,,https://teams.microsoft.com/meetingOptions/?organizerId=4391aca9-66bf-4d72-8817-2dfc10d73b94&tenantId=cc95de1b-97f5-4f93-b4ba-fe68b852cf91&threadId=19_meeting_NTM5ZmJiNGEtMGRiMC00ZmM2LThkMGMtMDUwNTQwOGIxODcw@thread.v2&messageId=0&language=en-US,https://www.oxramsociety.org/,https://www.facebook.com/OxRAM,https://www.instagram.com/oxramsoc/?hl=nl,,,https://docs.google.com/forms/d/1AGKQXZwY9xf01GBqszRE2R5djO9nxJJmc-RKV4i0Yy4/edit
106,Oxford Rocketry Society,,,Academic,img/logos/106.png,https://www.youtube.com/embed/dl3USmGvsqQ,https://teams.microsoft.com/l/meetup-join/19%3ameeting_M2U0ZjMwMDItZjMyNC00MjMwLTlhMTgtMjc3MDRkNjIyNTdi%40thread.v2/0?context=%7b%22Tid%22%3a%22cc95de1b-97f5-4f93-b4ba-fe68b852cf91%22%2c%22Oid%22%3a%22fc3d987f-761e-4b8b-bd54-59da2aa0d726%22%7d,https://oxfordrocketrysociety.org,https://www.facebook.com/OxfordRocketrySociety,https://www.instagram.com/oxfordrocketrysociety/,https://www.youtube.com/channel/UCTuzIQkV7eL4sYUHNVZei8Q,,
